XRISM                   
1 57800U 23137A   24008.27259502  .00004406  00000+0  34694-3 0  9994
2 57800  31.0050 315.2310 0009658  53.7151 306.4375 14.99160060 18425
